CELTEE 1                
1 41850U 16067C   18322.24343304 -.00000087  00000-0 -22814-5 0  9996
2 41850  97.9210  52.4436 0009076  18.4332 341.7216 14.96897411110146
OPTICUBE 04             
1 41851U 16067D   18322.49235671 -.00000221  00000-0 -13984-4 0  9998
2 41851  97.9214  52.5642 0009446  20.8332 339.3272 14.96732524110170
AEROCUBE 8D             
1 41852U 16067E   18321.81009585  .00000705  00000-0  67192-4 0  9992
2 41852  97.9225  51.7040 0010103  23.5422 336.6259 14.96590965110051
AEROCUBE 8C             
1 41853U 16067F   18322.49652797 -.00000261  00000-0 -17589-4 0  9991
2 41853  97.9223  52.3516 0010510  20.3833 339.7806 14.96554890110158
PROMETHEUS 2-1          
1 41854U 16067G   18322.22247250  .00000204  00000-0  23160-4 0  9994
2 41854  97.9233  52.1263 0010837  21.4902 338.6771 14.96708881110114
PROMETHEUS 2-3          
1 41855U 16067H   18322.49263263  .00000035  00000-0  84275-5 0  9993
2 41855  97.9234  52.4082 0010968  20.4432 339.7226 14.96708355110157
ITF-2                   
1 41932U 98067KU  18322.26167176  .00122598  17048-4  31799-3 0  9994
2 41932  51.6255 258.7636 0006077 108.6322 251.5346 15.94833149105171
INS-1B                  
1 41954U 17008G   18321.84580008  .00001335  00000-0  59019-4 0  9997
2 41954  97.4291  24.4046 0009740 164.6001 195.5534 15.23407488 97397
BGUSAT                  
1 41999U 17008BD  18322.43525570  .00002142  00000-0  88069-4 0  9999
2 41999  97.4344  26.5420 0008454 177.2004 182.9283 15.25234092 96939
DIDO-2                  
1 42000U 17008BE  18321.83876097  .00001024  00000-0  45875-4 0  9995
2 42000  97.4306  24.8961 0008472 181.8582 178.2625 15.23502919 96790
PEASSS                  
1 42015U 17008BV  18322.45485282  .00001180  00000-0  51089-4 0  9999
2 42015  97.4307  26.1566 0006287 182.8155 177.3048 15.24370684 97414
AL-FARABI 1             
1 42016U 17008BW  18322.13872411  .00001546  00000-0  65078-4 0  9998
2 42016  97.4318  26.1658 0006143 183.3495 176.7702 15.24876162 97505
NAYIF-1 (EO-88)         
1 42017U 17008BX  18322.45851448  .00001520  00000-0  63986-4 0  9999
2 42017  97.4315  26.4913 0006151 182.5004 177.6204 15.24903866 97572
HAVELSAT                
1 42700U 98067LH  18322.33633345  .00063180  00000-0  28132-3 0  9996
2 42700  51.6273 280.4760 0005693 106.5026 253.6603 15.83666520 86336
CXBN-2                  
1 42704U 98067LM  18322.27875636  .00060651  00000-0  27775-3 0  9996
2 42704  51.6302 282.3993 0004706  81.6633 278.4903 15.83094334 86227
PHOENIX                 
1 42706U 98067LP  18322.33669704  .00033792  00000-0  20625-3 0  9995
2 42706  51.6284 286.5892 0003222  67.4196 292.7145 15.77056633 86163
X-CUBESAT               
1 42707U 98067LQ  18322.39181203  .00081603  00000-0  31980-3 0  9995
2 42707  51.6277 278.4930 0004965  90.2565 269.9008 15.86236115 86268
QBEE50-LTU-OC           
1 42708U 98067LR  18322.29453472  .00062674  00000-0  28429-3 0  9996
2 42708  51.6279 281.7173 0004077  92.5077 267.6393 15.83287565 86178
ALTAIR PATHFINDER       
1 42711U 98067LS  18322.50603838  .00017666  00000-0  15321-3 0  9995
2 42711  51.6347 299.8253 0004733  54.1289 306.0147 15.69209084 85667
SHARC                   
1 42712U 98067LT  18322.55301332  .00038973  00000-0  28161-3 0  9995
2 42712  51.6342 299.4499 0004259  65.2635 294.8807 15.73086011 85915
ZA-AEROSAT              
1 42713U 98067LU  18322.12687856  .00036548  00000-0  23845-3 0  9997
2 42713  51.6339 291.9476 0004035  62.4260 297.7149 15.75492232 85738
CSUNSAT 1               
1 42715U 98067LW  18322.42936051  .00037457  00000-0  22831-3 0  9990
2 42715  51.6337 288.7287 0005163  62.2378 297.9146 15.77025553 85800
SPACECUBE               
1 42717U 98067LY  18322.33482541  .00061419  00000-0  28101-3 0  9993
2 42717  51.6238 281.9027 0005072 102.0373 258.1199 15.83106147 85258
HOOPOE                  
1 42718U 98067LZ  18322.11239869  .00173180  22796-4  44584-3 0  9995
2 42718  51.6234 274.3024 0006251 107.8776 252.2913 15.94818492 85331
NJUST-1                 
1 42722U 98067MB  18322.51543034  .00023953  00000-0  17050-3 0  9996
2 42722  51.6362 292.8836 0006355  91.0043   4.8767 15.73699991 84829
UNSW-ECO                
1 42723U 98067MC  18322.20274831  .00358752  68544-4  55613-3 0  9995
2 42723  51.6347 271.2755 0007396 117.9132 242.2629 16.03552874 85061
LILACSAT-1              
1 42725U 98067ME  18322.38546755  .00044911  00000-0  24167-3 0  9991
2 42725  51.6355 286.6341 0006065  88.8900  45.3765 15.79718061 84802
NSIGHT-1                
1 42726U 98067MF  18322.41164163  .00011260  00000-0  11920-3 0  9999
2 42726  51.6381 308.3231 0005916  86.8630 273.3042 15.64677994 84527
SNUSAT-1                
1 42727U 98067MG  18322.37987631  .00046238  00000-0  25080-3 0  9993
2 42727  51.6315 286.7907 0006997  74.8313 285.3461 15.79520618 84769
I-INSPIRE II            
1 42731U 98067ML  18322.36711630  .00729474  31103-3  64355-3 0  9990
2 42731  51.6256 267.6832 0006433 133.0617 227.0976 16.12350500 84902
POLYITAN-2-SAU          
1 42732U 98067MM  18322.36365590  .00084387  00000-0  33711-3 0  9999
2 42732  51.6294 279.8781 0006647  77.6251 282.5496 15.85813782 84747
SNUSAT-1B               
1 42733U 98067MN  18322.36956687  .00055704  00000-0  27683-3 0  9995
2 42733  51.6284 284.4751 0006816  71.4049 288.7693 15.81356074 84683
EXALTA-1                
1 42734U 98067MP  18318.24538221  .12474274  12505-4  35882-3 0  9995
2 42734  51.6055 286.4142 0002642 166.4742 193.6358 16.45390460 84235
BEEAGLESAT              
1 42736U 98067MR  18322.51479645  .00039742  00000-0  23365-3 0  9996
2 42736  51.6318 287.7446 0006821  89.9350 270.2432 15.77797940 84713
UCLSAT                  
1 42765U 17036A   18321.45780544  .00001224  00000-0  56224-4 0  9995
2 42765  97.3827  18.7081 0010070 257.1860 102.8251 15.22223661 78020
LITUANICASAT-2          
1 42768U 17036D   18322.14404874  .00001975  00000-0  89426-4 0  9997
2 42768  97.3849  18.9361 0014063 243.7371 116.2420 15.21971335 77971
AALTO-1                 
1 42775U 17036L   18322.12240314  .00000724  00000-0  35719-4 0  9997
2 42775  97.3816  18.5643 0012694 242.4382 117.5564 15.20995749 77896
URSA MAIOR              
1 42776U 17036M   18321.83670963  .00000894  00000-0  43249-4 0  9997
2 42776  97.3824  18.3705 0012508 243.6067 116.3885 15.21100488 77858
COMPASS 2               
1 42777U 17036N   18321.59551558  .00001679  00000-0  76000-4 0  9992
2 42777  97.3852  18.8016 0011298 246.9591 113.0454 15.22220561 77844
DIAMOND RED             
1 42783U 17036U   18322.15650307  .00001025  00000-0  48219-4 0  9990
2 42783  97.3826  19.1546 0010739 254.7006 105.3044 15.21773205 77926
PEGASUS                 
1 42784U 17036V   18321.64670720  .00001133  00000-0  52581-4 0  9992
2 42784  97.3830  18.7795 0010623 256.6093 103.3959 15.22013275 77852
DIAMOND GREEN           
1 42785U 17036W   18321.82650217  .00001060  00000-0  49767-4 0  9993
2 42785  97.3829  18.8486 0010608 256.6743 103.3310 15.21771867 77863
DIAMOND BLUE            
1 42786U 17036X   18322.15435040  .00000994  00000-0  46846-4 0  9996
2 42786  97.3828  19.1698 0010454 255.6038 104.4038 15.21774661 77917
NUDTSAT                 
1 42787U 17036Y   18322.55087205  .00001465  00000-0  65714-4 0  9996
2 42787  97.3845  20.0385 0010013 251.5724 108.4429 15.22748743 77853
SUCHAI                  
1 42788U 17036Z   18322.09985500  .00001372  00000-0  62449-4 0  9990
2 42788  97.3832  19.3951 0010247 254.2421 105.7685 15.22344180 78002
SKCUBE                  
1 42789U 17036AA  18321.57849501  .00001280  00000-0  58586-4 0  9998
2 42789  97.3830  18.8612 0010076 256.2963 103.7152 15.22278382 77840
VZLUSAT-1               
1 42790U 17036AB  18321.42146810  .00001630  00000-0  72769-4 0  9995
2 42790  97.3838  18.9332 0009707 256.5375 103.4781 15.22757455 77836
ROBUSTA-1B              
1 42792U 17036AD  18322.45208301  .00001262  00000-0  57523-4 0  9997
2 42792  97.3829  19.8147 0009670 253.6421 106.3753 15.22438591 77996
CICERO 6                
1 42793U 17036AE  18321.61278553  .00000991  00000-0  46153-4 0  9996
2 42793  97.3817  18.9204 0008819 258.7908 101.2337 15.22186157 77932
D-SAT                   
1 42794U 17036AF  18322.13851573  .00000267  00000-0  28415-4 0  9991
2 42794  97.5721  10.8177 0128102 129.4028 231.8617 14.90969088 76660
TOKI                    
1 42820U 98067MU  18322.17922582  .00039801  00000-0  24798-3 0  9992
2 42820  51.6336 293.0312 0004328  60.7276 299.4156 15.76502632 78072
MAZAALAI (NUMSAT-1)     
1 42822U 98067MW  18322.18780017  .00037650  00000-0  24091-3 0  9996
2 42822  51.6341 293.8527 0004465  61.5797 298.5652 15.75920905 78049
BRAC ONNESHA            
1 42823U 98067MX  18322.35766403  .00036289  00000-0  22960-3 0  9999
2 42823  51.6309 292.7606 0006124  62.9619 297.2006 15.76186303 78071
NIGERIAEDUSAT-1         
1 42824U 98067MY  18322.34787141  .00035200  00000-0  22722-3 0  9999
2 42824  51.6347 293.4738 0006250  67.3437 292.8223 15.75742121 78050
CORVUS BC2              
1 42846U 17042X   18321.80231928  .00000362  00000-0  41101-4 0  9998
2 42846  97.5831 219.0004 0010832  50.2756 309.9417 14.91884982 73270
CORVUS BC1              
1 42847U 17042Y   18321.76979449  .00000023  00000-0  75923-5 0  9995
2 42847  97.5832 219.0414 0010487  50.4153 309.7991 14.91984366 73267
SILU-1 (SILKROAD 1)     
1 42903U 17021F   18322.49162940  .00040163  00000-0  19676-3 0  9996
2 42903  42.7735 107.8639 0016291 315.6251 110.8219 15.81325476 74278
MIRATA                  
1 43015U 17073C   18322.07632516  .00000878  00000-0  73732-4 0  9996
2 43015  97.7109 246.7009 0258004 130.1956 232.2152 14.78484174 53878
MAKERSAT 0              
1 43016U 17073D   18321.79455793  .00000563  00000-0  48947-4 0  9996
2 43016  97.7140 246.5962 0259755 131.2388 231.1526 14.78385995 53824
